XCUBE-1                 
1 62400U 24247Z   26068.48297321  .00009773  00000+0  36224-3 0  9994
2 62400  44.9938 117.7807 0005235 331.1499  28.9094 15.27910558 67702
STARLINK-35712          
1 66215U 25244K   26068.76276548  .00013640  00000+0  47190-3 0  9991
2 66215  53.1612 229.3588 0000290 142.6213 217.4808 15.30192577 21673
