[{"OBJECT_NAME":"XCUBE-1","OBJECT_ID":"2024-247Z","EPOCH":"2026-03-09T11:35:28.885344","MEAN_MOTION":15.27910558,"ECCENTRICITY":0.00052355,"INCLINATION":44.9938,"RA_OF_ASC_NODE":117.7807,"ARG_OF_PERICENTER":331.1499,"MEAN_ANOMALY":28.9094,"EPHEMERIS_TYPE":0,"CLASSIFICATION_TYPE":"U","NORAD_CAT_ID":62400,"ELEMENT_SET_NO":999,"REV_AT_EPOCH":6770,"BSTAR":0.00036224252,"MEAN_MOTION_DOT":9.773e-5,"MEAN_MOTION_DDOT":0},{"OBJECT_NAME":"STARLINK-35712","OBJECT_ID":"2025-244K","EPOCH":"2026-03-09T18:18:22.937472","MEAN_MOTION":15.30192577,"ECCENTRICITY":2.901e-5,"INCLINATION":53.1612,"RA_OF_ASC_NODE":229.3588,"ARG_OF_PERICENTER":142.6213,"MEAN_ANOMALY":217.4808,"EPHEMERIS_TYPE":0,"CLASSIFICATION_TYPE":"U","NORAD_CAT_ID":66215,"ELEMENT_SET_NO":999,"REV_AT_EPOCH":2167,"BSTAR":0.00047189953,"MEAN_MOTION_DOT":0.0001364,"MEAN_MOTION_DDOT":0}]
